{
  "type": "FeatureCollection",
  "features": [
    {
      "type": "Feature",
      "properties": {},
      "geometry": {
        "type": "LineString",
        "coordinates": [
          [
            -5.936015,
            37.485935
          ],
          [
            -5.9384144,
            37.486462
          ],
          [
            -5.9386473,
            37.4865225
          ],
          [
            -5.9431946,
            37.4849825
          ],
          [
            -5.9439167,
            37.4861644
          ],
          [
            -5.9418766,
            37.4898578
          ],
          [
            -5.9416961,
            37.4898936
          ],
          [
            -5.9350049,
            37.4870912
          ],
          [
            -5.9351629,
            37.4860347
          ],
          [
            -5.9355127,
            37.4858557
          ],
          [
            -5.9360204,
            37.4859273
          ],
          [
            -5.9316537,
            37.4867062
          ]
        ]
      }
    }
  ]
}
