{
  "type": "FeatureCollection",
  "features": [
    {
      "type": "Feature",
      "properties": {},
      "geometry": {
        "coordinates": [
          -5.940156917998422,
          37.483285058947104
        ],
        "type": "Point"
      }
    },
    {
      "type": "Feature",
      "properties": {},
      "geometry": {
        "coordinates": [
          [
            -5.940258558912603,
            37.48309581041755
          ],
          [
            -5.939252123080479,
            37.48268317863429
          ],
          [
            -5.939914693336107,
            37.481069234046984
          ],
          [
            -5.944594619956035,
            37.48196106753056
          ],
          [
            -5.944514943786459,
            37.482736421573634
          ],
          [
            -5.9463907130323435,
            37.485972329437516
          ],
          [
            -5.947540077061802,
            37.485144446163346
          ],
          [
            -5.94743515889607,
            37.4849056928049
          ],
          [
            -5.947961816482632,
            37.48474917808282
          ],
          [
            -5.947424991760869,
            37.484891170834146
          ],
          [
            -5.946742895541462,
            37.483687056889465
          ],
          [
            -5.945394273306732,
            37.484150011276554
          ],
          [
            -5.9450557114980995,
            37.483786744440295
          ],
          [
            -5.944381961777083,
            37.484023270214806
          ],
          [
            -5.9441796559479485,
            37.48362634592938
          ],
          [
            -5.943735708763171,
            37.483775941307755
          ],
          [
            -5.943335973404174,
            37.48308878360578
          ],
          [
            -5.941612188722786,
            37.48359953451332
          ],
          [
            -5.940271217882412,
            37.48310274043848
          ],
          [
            -5.9401803388348355,
            37.483272612332414
          ]
        ],
        "type": "LineString"
      }
    }
  ]
}